{"spkid": "54509624", "covariance": {"labels": ["e", "q", "tp", "node", "peri", "i"], "elements": [{"units": null, "title": "eccentricity", "value": ".7281861437388741", "name": "e", "sigma": 1.48168819827979e-07, "label": "e"}, {"label": "q", "units": "au", "value": ".5067258878656192", "title": "perihelion distance", "name": "q", "sigma": 2.76868715263956e-07}, {"label": "tp", "sigma": 5.56434314076721e-06, "name": "tp", "title": "time of perihelion passage", "value": "2460760.007435750161", "units": "TDB"}, {"units": "deg", "value": "141.5421353444235", "title": "longitude of the ascending node", "name": "om", "sigma": 6.47176258853108e-06, "label": "node"}, {"label": "peri", "sigma": 2.7833398222312e-05, "name": "w", "units": "deg", "title": "argument of perihelion", "value": "100.2720108633205"}, {"name": "i", "sigma": 1.83526785571419e-05, "title": "inclination", "value": "27.79450706529973", "units": "deg", "label": "i"}], "data": [["2.195399916921605E-14", "-4.090559635037933E-14", "-7.146599487176049E-13", "2.852459152662019E-13", "3.967853887173828E-12", "6.178103983826442E-13"], ["-4.090559635037933E-14", "7.66562854919135E-14", "1.328799928094704E-12", "-5.329874770355825E-13", "-7.451320609060349E-12", "-1.15741356054091E-12"], ["-7.146599487176049E-13", "1.328799928094704E-12", "3.096191458820306E-11", "-1.099879351767027E-11", "-1.161051855238108E-10", "2.482497027696988E-12"], ["2.852459152662019E-13", "-5.329874770355825E-13", "-1.099879351767027E-11", "4.188371100231044E-11", "1.588473399664925E-11", "-6.05497669735926E-11"], ["3.967853887173828E-12", "-7.451320609060349E-12", "-1.161051855238108E-10", "1.588473399664925E-11", "7.74698056601799E-10", "2.050927314486112E-10"], ["6.178103983826442E-13", "-1.15741356054091E-12", "2.482497027696988E-12", "-6.05497669735926E-11", "2.050927314486112E-10", "3.368208102217764E-10"]], "epoch": "2460669.5"}, "elements": [{"label": "e", "units": null, "title": "eccentricity", "value": ".7280762329602949", "name": "e", "sigma": "1.4795E-7"}, {"label": "a", "sigma": "7.6943E-8", "name": "a", "units": "au", "value": "1.863306493685454", "title": "semi-major axis"}, {"label": "q", "name": "q", "sigma": "2.7615E-7", "units": "au", "title": "perihelion distance", "value": ".5066773209124932"}, {"units": "deg", "title": "inclination; angle with respect to x-y ecliptic plane", "value": "27.79667547074652", "sigma": "1.8352E-5", "name": "i", "label": "i"}, {"sigma": "6.4643E-6", "name": "om", "title": "longitude of the ascending node", "value": "141.5380566054797", "units": "deg", "label": "node"}, {"title": "argument of perihelion", "value": "100.2828283315926", "units": "deg", "sigma": "2.7861E-5", "name": "w", "label": "peri"}, {"label": "M", "units": "deg", "value": "170.71353022834", "title": "mean anomaly", "sigma": "1.0728E-5", "name": "ma"}, {"name": "tp", "sigma": "5.6405E-6", "title": "time of perihelion passage", "value": "2460759.954960311246", "units": "TDB", "label": "tp"}, {"units": "d", "title": "sidereal orbital period", "value": "929.0195925057561", "name": "per", "sigma": "5.7544E-5", "label": "period"}, {"title": "mean motion", "value": ".3875052828853763", "units": "deg/d", "sigma": "2.4002E-8", "name": "n", "label": "n"}, {"label": "Q", "sigma": "1.3296E-7", "name": "ad", "value": "3.219935666458415", "title": "aphelion distance", "units": "au"}], "epoch": "2461200.5"}